SatCatId,ObjectName,LaunchYear,OrbitalPeriod,LaunchMass,StatusCode,Inclination,Status,UcsData,OrbitClassEstimated,LaunchSiteCountry,Owner,UseType,Purpose,LaunchVehicleClass,TLE1,TLE2,MeanMotion,Eccentricity,OrbitClass
52265,STARLINK-3740,2022,95.44,260.0,+,53.22,Active,1,LEO,USA,USA,Commercial,Communications,Falcon,1 52265U 22041E   25170.40027594 -.00003076  00000+0 -17527-3 0  9997,2 52265  53.2161 211.0706 0001066  90.3482 269.7633 15.08839405174614,15.08839405,0.0001066,LEO
52266,STARLINK-3739,2022,95.44,260.0,+,53.22,Active,1,LEO,USA,USA,Commercial,Communications,Falcon,1 52266U 22041F   25170.33036271 -.00001354  00000+0 -67010-4 0  9992,2 52266  53.2159 211.3864 0001108  90.0431 270.0688 15.08837011175839,15.08837011,0.0001108,LEO
52267,STARLINK-3748,2022,95.44,260.0,+,53.22,Active,1,LEO,USA,USA,Commercial,Communications,Falcon,1 52267U 22041G   25170.12796773  .00001238  00000+0  95865-4 0  9998,2 52267  53.2158 212.3016 0001195  73.6477 286.4647 15.08842578174572,15.08842578,0.0001195,LEO
52268,STARLINK-3746,2022,95.44,260.0,+,53.22,Active,1,LEO,USA,USA,Commercial,Communications,Falcon,1 52268U 22041H   25169.44715330 -.00000773  00000+0 -30471-4 0  9999,2 52268  53.2169 215.2747 0001287  86.8527 273.2613 15.08838303175694,15.08838303,0.0001287,LEO
52269,STARLINK-3791,2022,95.44,260.0,+,53.22,Active,1,LEO,USA,USA,Commercial,Communications,Falcon,1 52269U 22041J   25170.38924060 -.00000445  00000+0 -98744-5 0  9991,2 52269  53.2156 211.1223 0001072  87.2293 272.8822 15.08837798174617,15.08837798,0.0001072,LEO
52270,STARLINK-3804,2022,95.44,260.0,+,53.22,Active,1,LEO,USA,USA,Commercial,Communications,Falcon,1 52270U 22041K   25170.38188270 -.00000068  00000+0  13816-4 0  9994,2 52270  53.2159 211.1856 0000994  75.1131 284.9971 15.08843280174615,15.0884328,9.94e-05,LEO
52271,STARLINK-3788,2022,95.44,260.0,+,53.22,Active,1,LEO,USA,USA,Commercial,Communications,Falcon,1 52271U 22041L   25170.38556230 -.00000371  00000+0 -52347-5 0  9991,2 52271  53.2163 211.1405 0001138  81.3960 278.7161 15.08841069174616,15.08841069,0.0001138,LEO
52272,STARLINK-3781,2022,95.44,260.0,+,53.22,Active,1,LEO,USA,USA,Commercial,Communications,Falcon,1 52272U 22041M   25170.11420281  .00000599  00000+0  55708-4 0  9992,2 52272  53.2162 212.3960 0001177  87.3296 272.7831 15.08840622174573,15.08840622,0.0001177,LEO
52273,STARLINK-3782,2022,95.44,260.0,+,53.22,Active,1,LEO,USA,USA,Commercial,Communications,Falcon,1 52273U 22041N   25170.35068426  .00000004  00000+0  18361-4 0  9993,2 52273  53.2159 201.6796 0001168  84.8630 275.2495 15.08841141174742,15.08841141,0.0001168,LEO
52274,STARLINK-3790,2022,95.44,260.0,+,53.22,Active,1,LEO,USA,USA,Commercial,Communications,Falcon,1 52274U 22041P   25170.37084300  .00000225  00000+0  32227-4 0  9997,2 52274  53.2166 211.2058 0001146  79.4098 280.7024 15.08837373175846,15.08837373,0.0001146,LEO
52275,STARLINK-3784,2022,95.44,260.0,+,53.22,Active,1,LEO,USA,USA,Commercial,Communications,Falcon,1 52275U 22041Q   25170.11324249  .00001131  00000+0  89138-4 0  9999,2 52275  53.2163 212.3617 0001082 110.0417 250.0692 15.08839283174575,15.08839283,0.0001082,LEO
52276,STARLINK-3778,2022,95.44,260.0,+,53.22,Active,1,LEO,USA,USA,Commercial,Communications,Falcon,1 52276U 22041R   25170.36716323  .00000552  00000+0  52784-4 0  9998,2 52276  53.2163 211.2217 0001201  87.6151 272.4978 15.08839210174617,15.0883921,0.0001201,LEO
52278,STARLINK-3780,2022,95.44,260.0,+,53.22,Active,1,LEO,USA,USA,Commercial,Communications,Falcon,1 52278U 22041T   25170.36347539 -.00000615  00000+0 -20566-4 0  9994,2 52278  53.2163 211.2375 0001180  86.1113 274.0014 15.08834531175837,15.08834531,0.000118,LEO
52280,STARLINK-3764,2022,95.44,260.0,+,53.22,Active,1,LEO,USA,USA,Commercial,Communications,Falcon,1 52280U 22041V   25170.35243913 -.00001784  00000+0 -94017-4 0  9997,2 52280  53.2157 211.2862 0001285  76.7440 283.3695 15.08832006175831,15.08832006,0.0001285,LEO
52281,STARLINK-3779,2022,95.44,260.0,+,53.22,Active,1,LEO,USA,USA,Commercial,Communications,Falcon,1 52281U 22041W   25170.36812190 -.00000034  00000+0  15923-4 0  9993,2 52281  53.2173 211.2179 0001213  87.0377 273.0754 15.08840733175834,15.08840733,0.0001213,LEO
52282,STARLINK-3783,2022,95.44,260.0,+,53.22,Active,1,LEO,USA,USA,Commercial,Communications,Falcon,1 52282U 22041X   25170.34600371 -.00000519  00000+0 -14501-4 0  9998,2 52282  53.2162 201.3161 0001176  80.3405 279.7720 15.08839610175962,15.0883961,0.0001176,LEO
52283,STARLINK-3789,2022,95.44,260.0,+,53.22,Active,1,LEO,USA,USA,Commercial,Communications,Falcon,1 52283U 22041Y   25170.35980323 -.00000198  00000+0  56415-5 0  9991,2 52283  53.2159 211.2527 0000908  69.6684 290.4405 15.08836029175833,15.08836029,9.08e-05,LEO
52284,STARLINK-3561,2022,95.44,260.0,+,53.22,Active,1,LEO,USA,USA,Commercial,Communications,Falcon,1 52284U 22041Z   25170.33864171  .00000241  00000+0  33225-4 0  9993,2 52284  53.2155 201.3461 0001160  81.3785 278.7339 15.08839739175961,15.08839739,0.000116,LEO
52285,STARLINK-3775,2022,95.44,260.0,+,53.22,Active,1,LEO,USA,USA,Commercial,Communications,Falcon,1 52285U 22041AA  25170.09116485  .00000433  00000+0  45292-4 0  9995,2 52285  53.2161 212.4577 0001145  91.9676 268.1447 15.08836710174574,15.0883671,0.0001145,LEO
52286,STARLINK-3802,2022,95.44,260.0,+,53.22,Active,1,LEO,USA,USA,Commercial,Communications,Falcon,1 52286U 22041AB  25170.33128663  .00000509  00000+0  50077-4 0  9995,2 52286  53.2155 201.3799 0001362  80.8777 279.2369 15.08829807175960,15.08829807,0.0001362,LEO
52287,STARLINK-3822,2022,95.44,260.0,+,53.22,Active,1,LEO,USA,USA,Commercial,Communications,Falcon,1 52287U 22041AC  25170.41500475 -.00000474  00000+0 -11712-4 0  9996,2 52287  53.2160 211.0039 0001045  77.8990 282.2120 15.08834174174627,15.08834174,0.0001045,LEO
52288,STARLINK-3776,2022,95.44,260.0,+,53.22,Active,1,LEO,USA,USA,Commercial,Communications,Falcon,1 52288U 22041AD  25170.06264279 -.00000130  00000+0  99194-5 0  9996,2 52288  53.2153 202.5878 0000945  88.3472 271.7628 15.08834394174705,15.08834394,9.45e-05,LEO
52289,STARLINK-3751,2022,95.44,260.0,+,53.22,Active,1,LEO,USA,USA,Commercial,Communications,Falcon,1 52289U 22041AE  25170.34232398  .00000143  00000+0  27095-4 0  9998,2 52289  53.2159 201.3317 0001067  81.8939 278.2174 15.08837477174746,15.08837477,0.0001067,LEO
52290,STARLINK-3772,2022,95.44,260.0,+,53.22,Active,1,LEO,USA,USA,Commercial,Communications,Falcon,1 52290U 22041AF  25170.38375833  .00000754  00000+0  65448-4 0  9998,2 52290  53.2153 201.1467 0001051  77.3506 282.7604 15.08844049174751,15.08844049,0.0001051,LEO
52291,STARLINK-3773,2022,91.62,260.0,P,53.19,Active,1,LEO,USA,USA,Commercial,Communications,Falcon,1 52291U 22041AG  25170.59337541  .00113228  00000+0  83829-3 0  9999,2 52291  53.1871 129.9414 0006007  66.0566 294.1082 15.72089943175779,15.72089943,0.0006007,LEO
52292,STARLINK-3753,2022,95.44,260.0,+,53.22,Active,1,LEO,USA,USA,Commercial,Communications,Falcon,1 52292U 22041AH  25170.31288007  .00000056  00000+0  21592-4 0  9996,2 52292  53.2158 201.4648 0001002  81.4718 278.6388 15.08838222175962,15.08838222,0.0001002,LEO
52293,STARLINK-3771,2022,95.44,260.0,+,53.22,Active,1,LEO,USA,USA,Commercial,Communications,Falcon,1 52293U 22041AJ  25170.39112550 -.00000233  00000+0  34682-5 0  9997,2 52293  53.2160 201.1243 0001256  87.0665 273.0471 15.08831996175983,15.08831996,0.0001256,LEO
52294,STARLINK-3777,2022,95.44,260.0,+,53.22,Active,1,LEO,USA,USA,Commercial,Communications,Falcon,1 52294U 22041AK  25170.11048382 -.00000249  00000+0  24273-5 0  9991,2 52294  53.2160 202.3716 0001071 125.4934 234.6158 15.08833617174710,15.08833617,0.0001071,LEO
52295,STARLINK-3765,2022,95.44,260.0,+,53.22,Active,1,LEO,USA,USA,Commercial,Communications,Falcon,1 52295U 22041AL  25170.38647890 -.00001707  00000+0 -89222-4 0  9995,2 52295  53.2156 201.1336 0000977  93.5511 266.5593 15.08829317174754,15.08829317,9.77e-05,LEO
52296,STARLINK-3766,2022,95.44,260.0,+,53.22,Active,1,LEO,USA,USA,Commercial,Communications,Falcon,1 52296U 22041AM  25170.36439959 -.00000421  00000+0 -83583-5 0  9996,2 52296  53.2158 201.2341 0001135  82.7963 277.3158 15.08841814174755,15.08841814,0.0001135,LEO
52297,STARLINK-3758,2022,95.44,260.0,+,53.22,Active,1,LEO,USA,USA,Commercial,Communications,Falcon,1 52297U 22041AN  25170.31656708 -.00000537  00000+0 -15652-4 0  9994,2 52297  53.2153 201.4467 0001170  85.6687 274.4438 15.08833852175962,15.08833852,0.000117,LEO
52298,STARLINK-3760,2022,95.44,260.0,+,53.22,Active,1,LEO,USA,USA,Commercial,Communications,Falcon,1 52298U 22041AP  25170.39011774 -.00000274  00000+0  87860-6 0  9990,2 52298  53.2153 200.7332 0001294  87.6546 272.4594 15.08826841174767,15.08826841,0.0001294,LEO
52300,STARLINK-3769,2022,95.44,260.0,+,53.22,Active,1,LEO,USA,USA,Commercial,Communications,Falcon,1 52300U 22041AR  25170.35336147  .00000565  00000+0  53568-4 0  9992,2 52300  53.2159 201.2834 0001063  81.4107 278.7005 15.08842179175971,15.08842179,0.0001063,LEO
52301,STARLINK-3768,2022,95.44,260.0,+,53.22,Active,1,LEO,USA,USA,Commercial,Communications,Falcon,1 52301U 22041AS  25170.37176195 -.00000380  00000+0 -57993-5 0  9994,2 52301  53.2169 201.2005 0001225  87.2346 272.8786 15.08837111174758,15.08837111,0.0001225,LEO
52302,STARLINK-3564,2022,95.44,260.0,+,53.22,Active,1,LEO,USA,USA,Commercial,Communications,Falcon,1 52302U 22041AT  25170.34324220  .00000074  00000+0  22718-4 0  9990,2 52302  53.2159 191.3294 0001048  82.1601 277.9510 15.08837040174884,15.0883704,0.0001048,LEO
52303,STARLINK-3742,2022,95.44,260.0,+,53.22,Active,1,LEO,USA,USA,Commercial,Communications,Falcon,1 52303U 22041AU  25169.82712186 -.00000045  00000+0  15215-4 0  9997,2 52303  53.2160 203.6460 0000781  52.1723 307.9340 15.08840471175893,15.08840471,7.81e-05,LEO
